$$SOE
2460147.500000000, A.D. 2023-Jul-22 00:00:00.0000, -4.870324960629668E+08, -2.683423951424547E+08, -9.433969874840960E+06,
2460154.500000000, A.D. 2023-Jul-29 00:00:00.0000, -4.824093039699155E+08, -2.753052982836261E+08, -9.525601449355811E+06,
2460161.500000000, A.D. 2023-Aug-05 00:00:00.0000, -4.776495687931481E+08, -2.821902566489061E+08, -9.614533615521133E+06,
2460168.500000000, A.D. 2023-Aug-12 00:00:00.0000, -4.727541597793548E+08, -2.889950380575415E+08, -9.700731356893450E+06,
2460175.500000000, A.D. 2023-Aug-19 00:00:00.0000, -4.677239685572644E+08, -2.957174041681538E+08, -9.784159762508586E+06,
2460182.500000000, A.D. 2023-Aug-26 00:00:00.0000, -4.625599098070379E+08, -3.023551099894060E+08, -9.864784019203320E+06,
2460189.500000000, A.D. 2023-Sep-02 00:00:00.0000, -4.572629219834865E+08, -3.089059034729781E+08, -9.942569409105942E+06,
2460196.500000000, A.D. 2023-Sep-09 00:00:00.0000, -4.518339680572336E+08, -3.153675252306463E+08, -1.001748131898987E+07,
2460203.500000000, A.D. 2023-Sep-16 00:00:00.0000, -4.462740361061176E+08, -3.217377084341061E+08, -1.008948528162883E+07,
2460210.500000000, A.D. 2023-Sep-23 00:00:00.0000, -4.405841393411468E+08, -3.280141786113873E+08, -1.015854706384414E+07,
2460217.500000000, A.D. 2023-Sep-30 00:00:00.0000, -4.347653159071560E+08, -3.341946521497265E+08, -1.022463267268978E+07,
2460224.500000000, A.D. 2023-Oct-07 00:00:00.0000, -4.288186308122350E+08, -3.402768340484658E+08, -1.028770810813975E+07,
2460231.500000000, A.D. 2023-Oct-14 00:00:00.0000, -4.227451789467890E+08, -3.462584182365763E+08, -1.034773922835012E+07,
2460238.500000000, A.D. 2023-Oct-21 00:00:00.0000, -4.165460859651819E+08, -3.521370888535981E+08, -1.040469189252938E+07,
2460245.500000000, A.D. 2023-Oct-28 00:00:00.0000, -4.102225084555975E+08, -3.579105202346384E+08, -1.045853206580852E+07,
2460252.500000000, A.D. 2023-Nov-04 00:00:00.0000, -4.037756346487342E+08, -3.635763763704584E+08, -1.050922583412877E+07,
2460259.500000000, A.D. 2023-Nov-11 00:00:00.0000, -3.972066854882471E+08, -3.691323104436584E+08, -1.055673939423126E+07,
2460266.500000000, A.D. 2023-Nov-18 00:00:00.0000, -3.905169158442120E+08, -3.745759645068730E+08, -1.060103904396340E+07,
2460273.500000000, A.D. 2023-Nov-25 00:00:00.0000, -3.837076157978931E+08, -3.799049692821937E+08, -1.064209117758560E+07,
2460280.500000000, A.D. 2023-Dec-02 00:00:00.0000, -3.767801119708739E+08, -3.851169440947680E+08, -1.067986228945318E+07,
2460287.500000000, A.D. 2023-Dec-09 00:00:00.0000, -3.697357688219319E+08, -3.902094970012414E+08, -1.071431899794832E+07,
2460294.500000000, A.D. 2023-Dec-16 00:00:00.0000, -3.625759896252811E+08, -3.951802251023279E+08, -1.074542811501041E+07,
2460301.500000000, A.D. 2023-Dec-23 00:00:00.0000, -3.553022167828837E+08, -4.000267143539776E+08, -1.077315673712209E+07,
2460308.500000000, A.D. 2023-Dec-30 00:00:00.0000, -3.479159328120055E+08, -4.047465378297475E+08, -1.079747214922890E+07,
2460315.500000000, A.D. 2024-Jan-06 00:00:00.0000, -3.404186637812060E+08, -4.093372547972835E+08, -1.081834157220092E+07,
2460322.500000000, A.D. 2024-Jan-13 00:00:00.0000, -3.328119820233408E+08, -4.137964124188512E+08, -1.083573219287241E+07,
2460329.500000000, A.D. 2024-Jan-20 00:00:00.0000, -3.250975069040352E+08, -4.181215469941463E+08, -1.084961133710352E+07,
2460336.500000000, A.D. 2024-Jan-27 00:00:00.0000, -3.172769056759127E+08, -4.223101840949878E+08, -1.085994654667199E+07,
2460343.500000000, A.D. 2024-Feb-03 00:00:00.0000, -3.093518948475780E+08, -4.263598385419399E+08, -1.086670559840235E+07,
2460350.500000000, A.D. 2024-Feb-10 00:00:00.0000, -3.013242417899046E+08, -4.302680145158949E+08, -1.086985651497883E+07,
2460357.500000000, A.D. 2024-Feb-17 00:00:00.0000, -2.931957664406207E+08, -4.340322057996334E+08, -1.086936757978657E+07,
2460364.500000000, A.D. 2024-Feb-24 00:00:00.0000, -2.849683430713512E+08, -4.376498961386328E+08, -1.086520735817420E+07,
2460371.500000000, A.D. 2024-Mar-02 00:00:00.0000, -2.766439020885733E+08, -4.411185597583795E+08, -1.085734473077086E+07,
2460378.500000000, A.D. 2024-Mar-09 00:00:00.0000, -2.682244317310505E+08, -4.444356621058747E+08, -1.084574895695740E+07,
2460385.500000000, A.D. 2024-Mar-16 00:00:00.0000, -2.597119792699827E+08, -4.475986606226682E+08, -1.083038978878182E+07,
2460392.500000000, A.D. 2024-Mar-23 00:00:00.0000, -2.511086518167409E+08, -4.506050044445434E+08, -1.081123753527468E+07,
2460399.500000000, A.D. 2024-Mar-30 00:00:00.0000, -2.424166189798800E+08, -4.534521330584460E+08, -1.078826287384662E+07,
2460406.500000000, A.D. 2024-Apr-06 00:00:00.0000, -2.336381171152262E+08, -4.561374772886348E+08, -1.076143670758474E+07,
2460413.500000000, A.D. 2024-Apr-13 00:00:00.0000, -2.247754516180104E+08, -4.586584617812638E+08, -1.073073032595465E+07,
2460420.500000000, A.D. 2024-Apr-20 00:00:00.0000, -2.158309982096801E+08, -4.610125063164815E+08, -1.069611556288943E+07,
2460427.500000000, A.D. 2024-Apr-27 00:00:00.0000, -2.068072047365093E+08, -4.631970265147364E+08, -1.065756485900143E+07,
2460434.500000000, A.D. 2024-May-04 00:00:00.0000, -1.977065933916964E+08, -4.652094346459522E+08, -1.061505129347241E+07,
2460441.500000000, A.D. 2024-May-11 00:00:00.0000, -1.885317631217873E+08, -4.670471406489118E+08, -1.056854861582077E+07,
2460448.500000000, A.D. 2024-May-18 00:00:00.0000, -1.792853921343119E+08, -4.687075533452350E+08, -1.051803128331232E+07,
2460455.500000000, A.D. 2024-May-25 00:00:00.0000, -1.699702404806410E+08, -4.701880818615499E+08, -1.046347450683394E+07,
2460462.500000000, A.D. 2024-Jun-01 00:00:00.0000, -1.605891526527683E+08, -4.714861373240589E+08, -1.040485431530812E+07,
2460469.500000000, A.D. 2024-Jun-08 00:00:00.0000, -1.511450599458395E+08, -4.725991348554094E+08, -1.034214766295972E+07,
2460476.500000000, A.D. 2024-Jun-15 00:00:00.0000, -1.416409821845445E+08, -4.735244953360199E+08, -1.027533257134026E+07,
2460483.500000000, A.D. 2024-Jun-22 00:00:00.0000, -1.320800298156272E+08, -4.742596457621254E+08, -1.020438811767620E+07,
2460490.500000000, A.D. 2024-Jun-29 00:00:00.0000, -1.224654084842183E+08, -4.748020200289090E+08, -1.012929422361842E+07,
2460497.500000000, A.D. 2024-Jul-06 00:00:00.0000, -1.128004234442663E+08, -4.751490626187007E+08, -1.005003168894678E+07,
2460504.500000000, A.D. 2024-Jul-13 00:00:00.0000, -1.030884818492549E+08, -4.752982323805922E+08, -9.966582418280661E+06,
2460511.500000000, A.D. 2024-Jul-20 00:00:00.0000, -9.333309490436168E+07, -4.752470052632380E+08, -9.878929564823300E+06,
2460518.500000000, A.D. 2024-Jul-27 00:00:00.0000, -8.353788053085166E+07, -4.749928769702804E+08, -9.787057609480381E+06,
2460525.500000000, A.D. 2024-Aug-03 00:00:00.0000, -7.370656626363356E+07, -4.745333659231544E+08, -9.690952431216300E+06,
2460532.500000000, A.D. 2024-Aug-10 00:00:00.0000, -6.384299220895672E+07, -4.738660165454940E+08, -9.590601384510845E+06,
2460539.500000000, A.D. 2024-Aug-17 00:00:00.0000, -5.395111400641142E+07, -4.729884028574583E+08, -9.485993386854827E+06,
2460546.500000000, A.D. 2024-Aug-24 00:00:00.0000, -4.403500575777292E+07, -4.718981324129077E+08, -9.377119021080643E+06,
2460553.500000000, A.D. 2024-Aug-31 00:00:00.0000, -3.409886279658750E+07, -4.705928506522120E+08, -9.263970668551683E+06,
2460560.500000000, A.D. 2024-Sep-07 00:00:00.0000, -2.414700392171304E+07, -4.690702455559474E+08, -9.146542696756065E+06,
2460567.500000000, A.D. 2024-Sep-14 00:00:00.0000, -1.418387299741178E+07, -4.673280516152163E+08, -9.024831628026187E+06,
2460574.500000000, A.D. 2024-Sep-21 00:00:00.0000, -4.214041935670835E+06, -4.653640527168742E+08, -8.898836069809824E+06,
2460581.500000000, A.D. 2024-Sep-28 00:00:00.0000, 5.757784466560591E+06, -4.631760871810744E+08, -8.768556625770897E+06,
2460588.500000000, A.D. 2024-Oct-05 00:00:00.0000, 1.572676552158158E+07, -4.607620549593401E+08, -8.633996124366373E+06,
2460595.500000000, A.D. 2024-Oct-12 00:00:00.0000, 2.568792313400230E+07, -4.581199240229274E+08, -8.495159888342440E+06,
2460602.500000000, A.D. 2024-Oct-19 00:00:00.0000, 3.563614004177970E+07, -4.552477362209676E+08, -8.352055906692505E+06,
2460609.500000000, A.D. 2024-Oct-26 00:00:00.0000, 4.556615780562146E+07, -4.521436134180539E+08, -8.204694971658856E+06,
2460616.500000000, A.D. 2024-Nov-02 00:00:00.0000, 5.547257482906965E+07, -4.488057640685158E+08, -8.053090816587865E+06,
2460623.500000000, A.D. 2024-Nov-09 00:00:00.0000, 6.534984453220964E+07, -4.452324902157307E+08, -7.897260261836052E+06,
2460630.500000000, A.D. 2024-Nov-16 00:00:00.0000, 7.519227373251864E+07, -4.414221949244034E+08, -7.737223371018946E+06,
2460637.500000000, A.D. 2024-Nov-23 00:00:00.0000, 8.499402130909508E+07, -4.373733902024769E+08, -7.573003625800878E+06,
2460644.500000000, A.D. 2024-Nov-30 00:00:00.0000, 9.474909738976975E+07, -4.330847054605616E+08, -7.404628141487300E+06,
2460651.500000000, A.D. 2024-Dec-07 00:00:00.0000, 1.044513635136025E+08, -4.285548960917296E+08, -7.232127927050173E+06,
2460658.500000000, A.D. 2024-Dec-14 00:00:00.0000, 1.140945331149701E+08, -4.237828509487550E+08, -7.055538025852799E+06,
2460665.500000000, A.D. 2024-Dec-21 00:00:00.0000, 1.236721700474669E+08, -4.187675999571027E+08, -6.874897425255328E+06,
2460672.500000000, A.D. 2024-Dec-28 00:00:00.0000, 1.331776871597694E+08, -4.135083248250946E+08, -6.690249158004016E+06,
2460679.500000000, A.D. 2025-Jan-04 00:00:00.0000, 1.426043475633221E+08, -4.080043704678293E+08, -6.501640638815969E+06,
2460686.500000000, A.D. 2025-Jan-11 00:00:00.0000, 1.519452668147654E+08, -4.022552554758683E+08, -6.309123932639182E+06,
2460693.500000000, A.D. 2025-Jan-18 00:00:00.0000, 1.611934151415999E+08, -3.962606825344620E+08, -6.112755944615722E+06,
2460700.500000000, A.D. 2025-Jan-25 00:00:00.0000, 1.703416200015203E+08, -3.900205492505910E+08, -5.912598591822088E+06,
2460707.500000000, A.D. 2025-Feb-01 00:00:00.0000, 1.793825692131118E+08, -3.835349593963413E+08, -5.708718975500435E+06,
$$EOE